{
  "type": "FeatureCollection",
  "features": [
    {
      "type": "Feature",
      "properties": {
        "norad_id": 38709,
        "name": "EXACTVIEW-1 (ADS-1B)",
        "group": "resource",
        "lat": -80.96373176520612,
        "lon": 170.90617713625414,
        "alt_km": 817.9458437460462,
        "timestamp": "2025-12-05T16:54:14.326713+00:00",
        "meta_object_name": "EXACTVIEW-1 (ADS-1B)",
        "meta_object_id": "2012-039C",
        "meta_epoch": "2025-12-05T07:12:31.047840",
        "meta_mean_motion": 14.24903181,
        "meta_eccentricity": 0.00110578,
        "meta_inclination": 98.9636,
        "meta_ra_of_asc_node": 87.5344,
        "meta_arg_of_pericenter": 15.4762,
        "meta_mean_anomaly": 344.6753,
        "meta_ephemeris_type": 0,
        "meta_classification_type": "U",
        "meta_norad_cat_id": 38709,
        "meta_element_set_no": 999,
        "meta_rev_at_epoch": 69509,
        "meta_bstar": 0.00015884545,
        "meta_mean_motion_dot": 3.25e-06,
        "meta_mean_motion_ddot": 0,
        "tle_line1": "1 38709U 12039C   25339.30035935  .00000325  00000+0  15885-3 0  9991",
        "tle_line2": "2 38709  98.9636  87.5344 0011057  15.4762 344.6753 14.24903181695094"
      },
      "geometry": {
        "type": "Point",
        "coordinates": [
          170.90617713625414,
          -80.96373176520612
        ]
      }
    },
    {
      "type": "Feature",
      "properties": {
        "norad_id": 38755,
        "name": "SPOT 6",
        "group": "resource",
        "lat": 11.894091876324298,
        "lon": -133.65056354175147,
        "alt_km": 698.7500388042827,
        "timestamp": "2025-12-05T16:54:14.326723+00:00",
        "meta_object_name": "SPOT 6",
        "meta_object_id": "2012-047A",
        "meta_epoch": "2025-12-05T07:54:17.747712",
        "meta_mean_motion": 14.58592478,
        "meta_eccentricity": 0.00010584,
        "meta_inclination": 98.1583,
        "meta_ra_of_asc_node": 44.2499,
        "meta_arg_of_pericenter": 101.0558,
        "meta_mean_anomaly": 259.076,
        "meta_ephemeris_type": 0,
        "meta_classification_type": "U",
        "meta_norad_cat_id": 38755,
        "meta_element_set_no": 999,
        "meta_rev_at_epoch": 70479,
        "meta_bstar": 0.00018826757,
        "meta_mean_motion_dot": 8.31e-06,
        "meta_mean_motion_ddot": 0,
        "tle_line1": "1 38755U 12047A   25339.32937208  .00000831  00000+0  18827-3 0  9998",
        "tle_line2": "2 38755  98.1583  44.2499 0001058 101.0558 259.0760 14.58592478704799"
      },
      "geometry": {
        "type": "Point",
        "coordinates": [
          -133.65056354175147,
          11.894091876324298
        ]
      }
    },
    {
      "type": "Feature",
      "properties": {
        "norad_id": 39019,
        "name": "PLEIADES 1B",
        "group": "resource",
        "lat": 66.2555460916332,
        "lon": 33.38012039565893,
        "alt_km": 690.5861206828049,
        "timestamp": "2025-12-05T16:54:14.326732+00:00",
        "meta_object_name": "PLEIADES 1B",
        "meta_object_id": "2012-068A",
        "meta_epoch": "2025-12-05T06:42:58.796352",
        "meta_mean_motion": 14.58541765,
        "meta_eccentricity": 0.00012367,
        "meta_inclination": 98.1803,
        "meta_ra_of_asc_node": 52.0492,
        "meta_arg_of_pericenter": 87.3889,
        "meta_mean_anomaly": 272.7451,
        "meta_ephemeris_type": 0,
        "meta_classification_type": "U",
        "meta_norad_cat_id": 39019,
        "meta_element_set_no": 999,
        "meta_rev_at_epoch": 69258,
        "meta_bstar": 0.00019339889,
        "meta_mean_motion_dot": 8.53e-06,
        "meta_mean_motion_ddot": 0,
        "tle_line1": "1 39019U 12068A   25339.27984718  .00000853  00000+0  19340-3 0  9992",
        "tle_line2": "2 39019  98.1803  52.0492 0001236  87.3889 272.7451 14.58541765692584"
      },
      "geometry": {
        "type": "Point",
        "coordinates": [
          33.38012039565893,
          66.2555460916332
        ]
      }
    },
    {
      "type": "Feature",
      "properties": {
        "norad_id": 39030,
        "name": "GOKTURK 2",
        "group": "resource",
        "lat": -39.70019791175766,
        "lon": -4.737100901472284,
        "alt_km": 651.1052333965772,
        "timestamp": "2025-12-05T16:54:14.326741+00:00",
        "meta_object_name": "GOKTURK 2",
        "meta_object_id": "2012-073A",
        "meta_epoch": "2025-12-05T07:46:14.306880",
        "meta_mean_motion": 14.7527523,
        "meta_eccentricity": 8.255e-05,
        "meta_inclination": 97.6898,
        "meta_ra_of_asc_node": 181.3419,
        "meta_arg_of_pericenter": 99.3606,
        "meta_mean_anomaly": 260.7697,
        "meta_ephemeris_type": 0,
        "meta_classification_type": "U",
        "meta_norad_cat_id": 39030,
        "meta_element_set_no": 999,
        "meta_rev_at_epoch": 69592,
        "meta_bstar": 0.00018521303,
        "meta_mean_motion_dot": 1.207e-05,
        "meta_mean_motion_ddot": 0,
        "tle_line1": "1 39030U 12073A   25339.32377670  .00001207  00000+0  18521-3 0  9994",
        "tle_line2": "2 39030  97.6898 181.3419 0000825  99.3606 260.7697 14.75275230695923"
      },
      "geometry": {
        "type": "Point",
        "coordinates": [
          -4.737100901472284,
          -39.70019791175766
        ]
      }
    },
    {
      "type": "Feature",
      "properties": {
        "norad_id": 39084,
        "name": "LANDSAT 8",
        "group": "resource",
        "lat": -80.83636898553662,
        "lon": 111.36442937736003,
        "alt_km": 710.6887679325191,
        "timestamp": "2025-12-05T16:54:14.326750+00:00",
        "meta_object_name": "LANDSAT 8",
        "meta_object_id": "2013-008A",
        "meta_epoch": "2025-12-05T07:24:33.900480",
        "meta_mean_motion": 14.57102749,
        "meta_eccentricity": 0.00011513,
        "meta_inclination": 98.2082,
        "meta_ra_of_asc_node": 47.4917,
        "meta_arg_of_pericenter": 85.2128,
        "meta_mean_anomaly": 274.9202,
        "meta_ephemeris_type": 0,
        "meta_classification_type": "U",
        "meta_norad_cat_id": 39084,
        "meta_element_set_no": 999,
        "meta_rev_at_epoch": 66966,
        "meta_bstar": 0.00018948566,
        "meta_mean_motion_dot": 8.08e-06,
        "meta_mean_motion_ddot": 0,
        "tle_line1": "1 39084U 13008A   25339.30872570  .00000808  00000+0  18949-3 0  9999",
        "tle_line2": "2 39084  98.2082  47.4917 0001151  85.2128 274.9202 14.57102749669660"
      },
      "geometry": {
        "type": "Point",
        "coordinates": [
          111.36442937736003,
          -80.83636898553662
        ]
      }
    },
    {
      "type": "Feature",
      "properties": {
        "norad_id": 39086,
        "name": "SARAL",
        "group": "resource",
        "lat": 24.040646249091253,
        "lon": -12.425501752903184,
        "alt_km": 780.3224117042773,
        "timestamp": "2025-12-05T16:54:14.326760+00:00",
        "meta_object_name": "SARAL",
        "meta_object_id": "2013-009A",
        "meta_epoch": "2025-12-05T06:07:26.796864",
        "meta_mean_motion": 14.32753015,
        "meta_eccentricity": 0.00026885,
        "meta_inclination": 98.5506,
        "meta_ra_of_asc_node": 163.2832,
        "meta_arg_of_pericenter": 123.0883,
        "meta_mean_anomaly": 237.056,
        "meta_ephemeris_type": 0,
        "meta_classification_type": "U",
        "meta_norad_cat_id": 39086,
        "meta_element_set_no": 999,
        "meta_rev_at_epoch": 66783,
        "meta_bstar": 0.00011483912,
        "meta_mean_motion_dot": 2.69e-06,
        "meta_mean_motion_ddot": 0,
        "tle_line1": "1 39086U 13009A   25339.25517126  .00000269  00000+0  11484-3 0  9997",
        "tle_line2": "2 39086  98.5506 163.2832 0002688 123.0883 237.0560 14.32753015667839"
      },
      "geometry": {
        "type": "Point",
        "coordinates": [
          -12.425501752903184,
          24.040646249091253
        ]
      }
    },
    {
      "type": "Feature",
      "properties": {
        "norad_id": 39150,
        "name": "GAOFEN-1",
        "group": "resource",
        "lat": -81.41977947752652,
        "lon": 162.93273970910852,
        "alt_km": 650.2063929073565,
        "timestamp": "2025-12-05T16:54:14.326769+00:00",
        "meta_object_name": "GAOFEN-1",
        "meta_object_id": "2013-018A",
        "meta_epoch": "2025-12-05T07:34:06.331584",
        "meta_mean_motion": 14.76513657,
        "meta_eccentricity": 0.00177668,
        "meta_inclination": 97.9336,
        "meta_ra_of_asc_node": 50.1056,
        "meta_arg_of_pericenter": 166.2889,
        "meta_mean_anomaly": 193.8808,
        "meta_ephemeris_type": 0,
        "meta_classification_type": "U",
        "meta_norad_cat_id": 39150,
        "meta_element_set_no": 999,
        "meta_rev_at_epoch": 67963,
        "meta_bstar": 0.00023213709,
        "meta_mean_motion_dot": 1.57e-05,
        "meta_mean_motion_ddot": 0,
        "tle_line1": "1 39150U 13018A   25339.31535106  .00001570  00000+0  23214-3 0  9994",
        "tle_line2": "2 39150  97.9336  50.1056 0017766 166.2889 193.8808 14.76513657679634"
      },
      "geometry": {
        "type": "Point",
        "coordinates": [
          162.93273970910852,
          -81.41977947752652
        ]
      }
    }
  ]
}